ONEWEB-0229             
1 48779U 21045N   24193.85820087  .00000118  00000+0  27851-3 0  9999
2 48779  87.9018  39.5596 0001916  81.7829 278.3518 13.15548660152808
ONEWEB-0228             
1 48780U 21045P   24193.80557223  .00000361  00000+0  93188-3 0  9991
2 48780  87.9024  39.5500 0001839  78.5454 281.5883 13.15068876152711
ONEWEB-0232             
1 48781U 21045Q   24193.86613121  .00000679  00000+0  17685-2 0  9997
2 48781  87.9012  39.5533 0002397  96.4375 263.7028 13.15544733153036
ONEWEB-0231             
1 48782U 21045R   24193.84393561 -.00000076  00000+0 -23614-3 0  9992
2 48782  87.9027  39.5909 0001881  76.8228 283.3112 13.15546585152742
ONEWEB-0234             
1 48783U 21045S   24193.55950850  .00000129  00000+0  30869-3 0  9998
2 48783  87.9019  39.6052 0000977 131.5870 228.5344 13.15546609151701
ONEWEB-0238             
1 48784U 21045T   24193.58961482 -.00000048  00000+0 -16112-3 0  9992
2 48784  87.9019  39.6168 0001667  87.7443 272.3878 13.15544157151609
ONEWEB-0240             
1 48785U 21045U   24193.59912533 -.00000110  00000+0 -32574-3 0  9997
2 48785  87.9018  39.5821 0001655  71.9207 288.2104 13.15547098152756
ONEWEB-0246             
1 48786U 21045V   24193.59357669 -.00000076  00000+0 -23568-3 0  9995
2 48786  87.9021  39.5882 0001989  82.2473 277.8883 13.15547409151504
